CCSDS_OMM_VERS,COMMENT,CREATION_DATE,ORIGINATOR,OBJECT_NAME,OBJECT_ID,CENTER_NAME,REF_FRAME,TIME_SYSTEM,MEAN_ELEMENT_THEORY,EPOCH,MEAN_MOTION,ECCENTRICITY,INCLINATION,RA_OF_ASC_NODE,ARG_OF_PERICENTER,MEAN_ANOMALY,EPHEMERIS_TYPE,CLASSIFICATION_TYPE,NORAD_CAT_ID,ELEMENT_SET_NO,REV_AT_EPOCH,BSTAR,MEAN_MOTION_DOT,MEAN_MOTION_DDOT,SEMIMAJOR_AXIS,PERIOD,APOAPSIS,PERIAPSIS,OBJECT_TYPE,RCS_SIZE,COUNTRY_CODE,LAUNCH_DATE,SITE,DECAY_DATE,FILE,GP_ID,TLE_LINE0,TLE_LINE1,TLE_LINE2,NORAD_KEY,JCAT,DeepCat,Satcat,Piece,Active,Type,Name,LDate,Parent,Owner,State,SDate,ExpandedStatus,DDate,ODate,Period,Perigee,PF,Apogee,AF,Inc,IF,OpOrbit,SATCAT_KEY,DENSITY_SCORE
3.0,GENERATED VIA SPACE-TRACK.ORG API,2026-05-06T14:56:52,18 SPCS,EXPRESS 2A,2000-013A,EARTH,TEME,UTC,SGP4,2026-05-06T11:17:40.203744,0.98254927,0.0006576,13.0611,23.6357,29.9357,48.1792,0,U,26098,999,9497,0.0,2e-08,0.0,42739.78,1465.575,36389.751,36333.539,PAYLOAD,LARGE,CIS,2000-03-12,TTMTR,,5177582,322307210,0 EXPRESS 2A,1 26098U 00013A   26126.47060421  .00000002  00000-0  00000+0 0  9991,2 26098  13.0611  23.6357 0006576  29.9357  48.1792  0.98254927 94970,26098,S26098,-,26098,2000-013A,P,P,Ekspress 6A,2000 Mar 12,S26101,KS/ISPUT,RU,2000 Mar 12 1039,In Earth orbit,-,2026 May  3 ,1465.573,36333, ,36389, ,13.06, ,GEO/ID,26098,2.2002611983857627
3.0,GENERATED VIA SPACE-TRACK.ORG API,2026-05-06T14:46:56,18 SPCS,AMOS 5,2011-074A,EARTH,TEME,UTC,SGP4,2026-05-06T11:28:20.348256,1.00173295,0.0003044,8.7218,61.2009,2.7948,65.4517,0,U,37950,999,5258,0.0,-2.29e-06,0.0,42192.365,1437.509,35827.073,35801.387,PAYLOAD,LARGE,ISRA,2011-12-11,TTMTR,,5177122,322296839,0 AMOS 5,1 37950U 11074A   26126.47801329 -.00000229  00000-0  00000+0 0  9991,2 37950   8.7218  61.2009 0003044   2.7948  65.4517  1.00173295 52587,37950,S37950,-,37950,2011-074A,P,P,Amos 5,2011 Dec 11,S37952,IAIS,IL,2011 Dec 11 2052,In Earth orbit,-,2026 May  5 ,1437.502,35801, ,35827, ,8.72, ,GEO/ID,37950,2.2012487417375137
3.0,GENERATED VIA SPACE-TRACK.ORG API,2026-05-06T14:46:56,18 SPCS,NSS 12,2009-058A,EARTH,TEME,UTC,SGP4,2026-05-06T11:42:03.378240,1.00272884,0.0005027,0.0856,71.1418,312.9497,72.7799,0,U,36032,999,6050,0.0,7.9e-07,0.0,42164.424,1436.081,35807.485,35765.093,PAYLOAD,LARGE,SES,2009-10-29,FRGUI,,5177093,322295451,0 NSS 12,1 36032U 09058A   26126.48753910  .00000079  00000-0  00000+0 0  9995,2 36032   0.0856  71.1418 0005027 312.9497  72.7799  1.00272884 60500,36032,S36032,-,36032,2009-058A,P,P,NSS 12,2009 Oct 29,S36035,SESSAN,NL,2009 Oct 29 2026,In Earth orbit,-,2026 May  5 ,1436.087,35764, ,35807, ,0.08, ,GEO/S,36032,2.201728449598703
